NORAD_CAT_ID,OBJECT_NAME,OBJECT_TYPE,EPOCH,MEAN_MOTION,ECCENTRICITY,INCLINATION,RA_OF_ASC_NODE,ARG_OF_PERICENTER,MEAN_ANOMALY,BSTAR,MEAN_MOTION_DOT,MEAN_MOTION_DDOT,TLE_LINE0,TLE_LINE1,TLE_LINE2,SEMIMAJOR_AXIS,PERIOD,APOGEE,PERIGEE,DECAYED
52383.0,STARLINK-3811,PAYLOAD,2022-05-17 06:00:00,15.73205958,0.0001013,53.2128,350.2896,71.7056,22.307,0.00025662,0.00035556,0.0,0 STARLINK-3811,1 52383U 22045BE  22137.25001157  .00035556  00000-0  25662-3 0  9998,2 52383  53.2128 350.2896 0001013  71.7056  22.3070 15.73205958  5282,6727.878000000002,91.533,350.425,349.06199999999984,0.0
52383.0,STARLINK-3811,PAYLOAD,2022-05-17 14:00:01,15.73255561,0.0001025,53.2132,348.6388,85.6814,97.3264,-0.0001361999999999,-0.00019735,0.0,0 STARLINK-3811,1 52383U 22045BE  22137.58335648 -.00019735  00000-0 -13620-3 0  9993,2 52383  53.2132 348.6388 0001025  85.6814  97.3264 15.73255561  1304,6727.736999999999,91.53,350.291,348.912,0.0
52383.0,STARLINK-3811,PAYLOAD,2022-05-17 20:00:01,15.73268227,0.0001017,53.2131,347.4032,71.0917,88.6134,-0.00067187,-0.00094135,0.0,0 STARLINK-3811,1 52383U 22045BE  22137.83334491 -.00094135  00000-0 -67187-3 0  9990,2 52383  53.2131 347.4032 0001017  71.0917  88.6134 15.73268227  5373,6727.701,91.529,350.25,348.881,0.0
52383.0,STARLINK-3811,PAYLOAD,2022-05-17 22:00:01,15.73232136,0.000106,53.2132,346.9911,68.8033,203.2213,-0.00025903,-0.00036863,0.0,0 STARLINK-3811,1 52383U 22045BE  22137.91668981 -.00036863  00000-0 -25903-3 0  9997,2 52383  53.2132 346.9911 0001060  68.8033 203.2213 15.73232136  1307,6727.804,91.531,350.38199999999995,348.955,0.0
52383.0,STARLINK-3811,PAYLOAD,2022-05-18 06:00:00,15.7324542,9.2e-05,53.2133,345.3402,69.1983,291.7174,-0.0004817,-0.00067809,0.0,0 STARLINK-3811,1 52383U 22045BE  22138.25001157 -.00067809  00000-0 -48170-3 0  9996,2 52383  53.2133 345.3402 0000920  69.1983 291.7174 15.73245420  5434,6727.766,91.531,350.25,349.01199999999994,0.0
52383.0,STARLINK-3811,PAYLOAD,2022-05-18 12:00:00,15.73179698,0.0001044,53.2134,344.1016,77.1802,260.4666,0.00076395,0.00107887,0.0,0 STARLINK-3811,1 52383U 22045BE  22138.50001157  .00107887  00000-0  76395-3 0  9993,2 52383  53.2134 344.1016 0001044  77.1802 260.4666 15.73179698  5476,6727.953,91.534,350.52,349.116,0.0
52383.0,STARLINK-3811,PAYLOAD,2022-05-18 14:00:01,15.73234726,0.000114,53.2137,343.6894,78.5847,11.281,0.00011565,0.00015665,0.0,0 STARLINK-3811,1 52383U 22045BE  22138.58334491  .00015665  00000-0  11565-3 0  9991,2 52383  53.2137 343.6894 0001140  78.5847  11.2810 15.73234726  1303,6727.795999999999,91.531,350.42800000000005,348.894,0.0
52383.0,STARLINK-3811,PAYLOAD,2022-05-18 20:00:01,15.73261269,0.00012,53.2134,342.4539,68.0455,358.5464,-0.00082484,-0.0011511,0.0,0 STARLINK-3811,1 52383U 22045BE  22138.83334491 -.00115110  00000-0 -82484-3 0  9995,2 52383  53.2134 342.4539 0001200  68.0455 358.5464 15.73261269  5532,6727.72,91.53,350.39300000000014,348.778,0.0
52383.0,STARLINK-3811,PAYLOAD,2022-05-18 22:00:00,15.73217096,0.0001243,53.2135,342.0417,65.3188,113.5269,-0.00037854,-0.00053447,0.0,0 STARLINK-3811,1 52383U 22045BE  22138.91667824 -.00053447  00000-0 -37854-3 0  9998,2 52383  53.2135 342.0417 0001243  65.3188 113.5269 15.73217096  1306,6727.846,91.532,350.548,348.875,0.0
52383.0,STARLINK-3811,PAYLOAD,2022-05-19 06:00:00,15.73207329,0.0001087,53.2129,340.3907,71.3625,196.4028,-0.00048877,-0.00068678,0.0,0 STARLINK-3811,1 52383U 22045BE  22139.25001157 -.00068678  00000-0 -48877-3 0  9996,2 52383  53.2129 340.3907 0001087  71.3625 196.4028 15.73207329  5599,6727.874,91.533,350.471,349.0080000000001,0.0
52383.0,STARLINK-3811,PAYLOAD,2022-05-19 14:00:01,15.73153702,0.0001131,53.2133,338.7404,79.7385,276.9997,0.0005583,0.00078311,0.0,0 STARLINK-3811,1 52383U 22045BE  22139.58335648  .00078311  00000-0  55830-3 0  9997,2 52383  53.2133 338.7404 0001131  79.7385 276.9997 15.73153702  1301,6728.026999999999,91.536,350.653,349.131,0.0
52383.0,STARLINK-3811,PAYLOAD,2022-05-19 22:00:00,15.73224368,0.0001026,53.2134,337.093,62.7794,22.8219,-4.7115e-05,-7.233e-05,0.0,0 STARLINK-3811,1 52383U 22045BE  22139.91667824 -.00007233  00000-0 -47115-4 0  9993,2 52383  53.2134 337.0930 0001026  62.7794  22.8219 15.73224368  5707,6727.826,91.532,350.381,349.0,0.0
52383.0,STARLINK-3811,PAYLOAD,2022-05-20 14:00:01,15.73238984,0.0001142,53.2139,333.7915,73.3798,190.1222,-0.00045189,-0.00063666,0.0,0 STARLINK-3811,1 52383U 22045BE  22140.58334491 -.00063666  00000-0 -45189-3 0  9999,2 52383  53.2139 333.7915 0001142  73.3798 190.1222 15.73238984  1303,6727.784000000002,91.531,350.417,348.881,0.0
52383.0,STARLINK-3811,PAYLOAD,2022-05-20 22:00:00,15.73214329,8.75e-05,53.2176,332.1438,59.9324,292.2975,-0.00011055,-0.00016113,0.0,0 STARLINK-3811,1 52383U 22045BE  22140.91667824 -.00016113  00000-0 -11055-3 0  9995,2 52383  53.2176 332.1438 0000875  59.9324 292.2975 15.73214329  5854,6727.854,91.532,350.30800000000005,349.131,0.0
52383.0,STARLINK-3811,PAYLOAD,2022-05-21 06:00:00,15.73231805,0.0001104,53.2132,330.4926,65.2692,16.171,-0.00041038,-0.00057896,0.0,0 STARLINK-3811,1 52383U 22045BE  22141.25001157 -.00057896  00000-0 -41038-3 0  9991,2 52383  53.2132 330.4926 0001104  65.2692  16.1710 15.73231805  5918,6727.804,91.531,350.412,348.927,0.0
52383.0,STARLINK-3811,PAYLOAD,2022-05-21 14:00:01,15.73223342,0.0001097,53.2135,328.8428,71.6573,98.7744,-4.2164e-05,-6.538e-05,0.0,0 STARLINK-3811,1 52383U 22045BE  22141.58335648 -.00006538  00000-0 -42164-4 0  9991,2 52383  53.2135 328.8428 0001097  71.6573  98.7744 15.73223342  1308,6727.829000000002,91.532,350.432,348.956,0.0
52383.0,STARLINK-3811,PAYLOAD,2022-05-21 20:00:01,15.7320288,0.0001162,53.2133,327.6072,57.1178,89.9699,0.00012571,0.00017061,0.0,0 STARLINK-3811,1 52383U 22045BE  22141.83334491  .00017061  00000-0  12571-3 0  9993,2 52383  53.2133 327.6072 0001162  57.1178  89.9699 15.73202880  6008,6727.887,91.533,350.534,348.97,0.0
52383.0,STARLINK-3811,PAYLOAD,2022-05-21 22:00:00,15.73195859,0.0001189,53.2135,327.1952,54.2582,205.0672,0.00024104,0.00033337,0.0,0 STARLINK-3811,1 52383U 22045BE  22141.91667824  .00033337  00000-0  24104-3 0  9990,2 52383  53.2135 327.1952 0001189  54.2582 205.0672 15.73195859  1305,6727.906999999997,91.533,350.57199999999995,348.972,0.0
52383.0,STARLINK-3811,PAYLOAD,2022-05-22 06:00:00,15.73191801,0.000123,53.2136,325.5438,64.016,284.2504,-0.0003142,-0.00044467,0.0,0 STARLINK-3811,1 52383U 22045BE  22142.25001157 -.00044467  00000-0 -31420-3 0  9996,2 52383  53.2136 325.5438 0001230  64.0160 284.2504 15.73191801  6069,6727.919,91.534,350.611,348.956,0.0
52383.0,STARLINK-3811,PAYLOAD,2022-05-22 14:00:01,15.73182801,0.00013,53.2138,323.8941,65.3952,11.7416,-0.00037702,-0.0005316,0.0,0 STARLINK-3811,1 52383U 22045BE  22142.58334491 -.00053160  00000-0 -37702-3 0  9991,2 52383  53.2138 323.8941 0001300  65.3952  11.7416 15.73182801  1309,6727.944,91.534,350.684,348.935,0.0
52383.0,STARLINK-3811,PAYLOAD,2022-05-22 22:00:01,15.73127786,0.0001294,53.2135,322.2464,49.0149,117.0978,0.0009766,0.00138289,0.0,0 STARLINK-3811,1 52383U 22045BE  22142.91668981  .00138289  00000-0  97660-3 0  9995,2 52383  53.2135 322.2464 0001294  49.0149 117.0978 15.73127786  6172,6728.101,91.537,350.837,349.095,0.0
52383.0,STARLINK-3811,PAYLOAD,2022-05-23 04:00:00,15.72897734,0.0001188,53.2162,321.0078,46.5361,96.2616,0.0022604,0.0032498,0.0,0 STARLINK-3811,1 52383U 22045BE  22143.16667824  .00324980  00000-0  22604-2 0  9998,2 52383  53.2162 321.0078 0001188  46.5361  96.2616 15.72897734  6218,6728.757,91.551,351.421,349.8230000000001,0.0
52383.0,STARLINK-3811,PAYLOAD,2022-05-23 14:00:01,15.73244993,0.0001190999999999,53.2132,318.9456,59.4491,284.4407,-0.00063261,-0.00088642,0.0,0 STARLINK-3811,1 52383U 22045BE  22143.58334491 -.00088642  00000-0 -63261-3 0  9994,2 52383  53.2132 318.9456 0001191  59.4491 284.4407 15.73244993  1309,6727.767,91.531,350.43300000000005,348.831,0.0
52383.0,STARLINK-3811,PAYLOAD,2022-05-23 16:00:00,15.73229846,0.0001188,53.213,318.534,53.7619,42.3821,-0.00034566,-0.00048911,0.0,0 STARLINK-3811,1 52383U 22045BE  22143.66667824 -.00048911  00000-0 -34566-3 0  9993,2 52383  53.2130 318.5340 0001188  53.7619  42.3821 15.73229846  6294,6727.81,91.531,350.474,348.876,0.0
52383.0,STARLINK-3811,PAYLOAD,2022-05-23 22:00:01,15.7317238,0.0001276,53.213,317.2978,44.3111,28.6134,0.00079629,0.00112508,0.0,0 STARLINK-3811,1 52383U 22045BE  22143.91668981  .00112508  00000-0  79629-3 0  9997,2 52383  53.2130 317.2978 0001276  44.3111  28.6134 15.73172380  1309,6727.974,91.535,350.69699999999995,348.98,0.0
52383.0,STARLINK-3811,PAYLOAD,2022-05-24 04:00:00,15.73261023,0.0001291999999999,53.2131,316.0591,49.2414,0.3036,-0.00058808,-0.00082562,0.0,0 STARLINK-3811,1 52383U 22045BE  22144.16667824 -.00082562  00000-0 -58808-3 0  9994,2 52383  53.2131 316.0591 0001292  49.2414   0.3036 15.73261023  6379,6727.721,91.53,350.455,348.717,0.0
52383.0,STARLINK-3811,PAYLOAD,2022-05-24 14:00:01,15.73176885,0.0001504,53.2137,313.9967,57.9483,192.7744,5.9258e-05,7.696e-05,0.0,0 STARLINK-3811,1 52383U 22045BE  22144.58334491  .00007696  00000-0  59258-4 0  9995,2 52383  53.2137 313.9967 0001504  57.9483 192.7744 15.73176885  1307,6727.9609999999975,91.535,350.838,348.814,0.0
52383.0,STARLINK-3811,PAYLOAD,2022-05-24 22:00:00,15.73153036,0.000158,53.2138,312.3487,46.654,292.9928,0.00040479,0.00056458,0.0,0 STARLINK-3811,1 52383U 22045BE  22144.91667824  .00056458  00000-0  40479-3 0  9995,2 52383  53.2138 312.3487 0001580  46.6540 292.9928 15.73153036  6485,6728.029,91.536,350.957,348.831,0.0
52383.0,STARLINK-3811,PAYLOAD,2022-05-25 14:00:01,15.73225975,0.0001539,53.2154,309.0472,54.4766,103.0411,-3.6436e-06,-1.132e-05,0.0,0 STARLINK-3811,1 52383U 22045BE  22145.58334491 -.00001132  00000-0 -36436-5 0  9991,2 52383  53.2154 309.0472 0001539  54.4766 103.0411 15.73225975  1308,6727.821,91.532,350.722,348.651,0.0
